IRIDIUM 126             
1 42809U 17039G   24239.83614327  .00000459  00000+0  15674-3 0  9990
2 42809  86.3917 269.1585 0002308  88.5139 271.6322 14.34220166375447
IRIDIUM 124             
1 42810U 17039H   24240.20138919  .00001079  00000+0  31483-3 0  9998
2 42810  86.4524 205.7594 0002061  85.4153 274.7284 14.43264135380067
IRIDIUM 128             
1 42811U 17039J   24239.89665344  .00000404  00000+0  13703-3 0  9995
2 42811  86.3959 300.6789 0002023  89.9000 270.2428 14.34217095375482
IRIDIUM 121             
1 42812U 17039K   24240.13424311  .00000548  00000+0  18857-3 0  9996
2 42812  86.3916 269.0569 0002222  92.0421 268.1029 14.34217348375487
IRIDIUM 133             
1 42955U 17061A   24239.92836695  .00000505  00000+0  17315-3 0  9997
2 42955  86.3961 300.7672 0002277  93.4593 266.6863 14.34223295360287
IRIDIUM 100             
1 42956U 17061B   24239.92202354  .00000331  00000+0  11128-3 0  9990
2 42956  86.3958 300.7036 0002195  93.3402 266.8045 14.34217522360285
IRIDIUM 122             
1 42957U 17061C   24239.89030853  .00000250  00000+0  82179-4 0  9995
2 42957  86.3959 300.7155 0002230  88.4465 271.6987 14.34218930360286
IRIDIUM 129             
1 42958U 17061D   24239.56684398  .00000537  00000+0  18465-3 0  9993
2 42958  86.3961 300.9107 0002551  89.7360 270.4128 14.34221763360252
